GIOVE-A                 
1 28922U 05051A   12012.83377693  .00000028  00000-0  10000-3 0  9136
2 28922  56.2015 132.6403 0007393  13.7592 346.2368  1.69484585 37497
GIOVE-B                 
1 32781U 08020A   12012.97170224  .00000068  00000-0  10000-3 0  5487
2 32781  55.9197 167.0269 0019453 218.6780 141.1416  1.70956880 23191
GALILEO-PFM (GSAT0101)  
1 37846U 11060A   12013.73394287  .00000020  00000-0  00000+0 0   370
2 37846  54.7062 127.4214 0001560 289.1673  70.8033  1.70474506  1436
GALILEO-FM2 (GSAT0102)  
1 37847U 11060B   12012.49555214  .00000020  00000-0  10000-3 0   377
2 37847  54.7035 127.4542 0002649 261.9532  97.9995  1.70474709  1412
